SPAWAR-CAL-R            
1 43776U 18099U   26067.65115975  .00003570  00000+0  25336-3 0  9990
2 43776  97.4524 111.5817 0019701 348.9052  11.1737 15.05212097396878
STARLINK-4173           
1 53285U 22086AV  26068.59278382 -.00000174  00000+0  71780-5 0  9997
2 53285  53.2169 184.5569 0001227  90.3635 269.7498 15.08843600201178
