[{"OBJECT_NAME":"SPAWAR-CAL-R","OBJECT_ID":"2018-099U","EPOCH":"2026-03-08T15:37:40.202400","MEAN_MOTION":15.05212097,"ECCENTRICITY":0.00197014,"INCLINATION":97.4524,"RA_OF_ASC_NODE":111.5817,"ARG_OF_PERICENTER":348.9052,"MEAN_ANOMALY":11.1737,"EPHEMERIS_TYPE":0,"CLASSIFICATION_TYPE":"U","NORAD_CAT_ID":43776,"ELEMENT_SET_NO":999,"REV_AT_EPOCH":39687,"BSTAR":0.00025335573,"MEAN_MOTION_DOT":3.57e-5,"MEAN_MOTION_DDOT":0},{"OBJECT_NAME":"STARLINK-4173","OBJECT_ID":"2022-086AV","EPOCH":"2026-03-09T14:13:36.522048","MEAN_MOTION":15.088436,"ECCENTRICITY":0.0001227,"INCLINATION":53.2169,"RA_OF_ASC_NODE":184.5569,"ARG_OF_PERICENTER":90.3635,"MEAN_ANOMALY":269.7498,"EPHEMERIS_TYPE":0,"CLASSIFICATION_TYPE":"U","NORAD_CAT_ID":53285,"ELEMENT_SET_NO":999,"REV_AT_EPOCH":20117,"BSTAR":7.178e-6,"MEAN_MOTION_DOT":-1.74e-6,"MEAN_MOTION_DDOT":0}]
